460P/PANSTARRS,e,18.8957,180.5147,351.9695,3.027026,0.1871457,0.66414480,140.4123,07/07.0/2023,2000,g 21.0,4.0
# From MPC107687
1I/`Oumuamua,h,09/09.4886/2017,122.6778,24.5997,241.6845,1.199252,0.255240,2000,23.0,2.0
# From MPEC 2023-L37
2I/Borisov,h,12/08.5548/2019,44.0527,308.1480,209.1251,3.356633,2.006548,2000,11.0,4.0
